MEAN_MOTION;ECCENTRICITY;INCLINATION;RA_OF_ASC_NODE;ARG_OF_PERICENTER;MEAN_ANOMALY;BSTAR;MEAN_MOTION_DOT;MEAN_MOTION_DDOT;TYPE
14.5139878;0.00151;98.4118;356.8181;149.2125;210.9958;2.6918E-6;-3.5E-7;0;Amateur
14.51398771;0.0015116;98.4118;357.0251;148.5909;211.6191;2.4263E-6;-3.6E-7;0;Amateur
14.5139878;0.0015149;98.4118;357.5078;147.167;213.0469;2.1793E-6;-3.7E-7;0;Amateur
14.51398817;0.0015168;98.4118;357.8527;146.1566;214.06;2.1646E-6;-3.7E-7;0;Amateur
14.51398867;0.0015197;98.4118;358.1976;145.1359;215.0834;3.3262E-6;-3.2E-7;0;Amateur
14.51398842;0.0015203;98.4118;358.3355;144.732;215.4883;2.1457E-6;-3.7E-7;0;Amateur
14.51398864;0.0015227;98.4118;358.8183;143.3216;216.9024;2.2514E-6;-3.7E-7;0;Amateur
14.51398865;0.0015261;98.4119;359.37;141.7046;218.5235;2.2085E-6;-3.7E-7;0;Amateur
14.51398888;0.001531;98.4119;0.1977;139.3019;220.9323;2.1967E-6;-3.7E-7;0;Amateur
14.51398873;0.0015322;98.4119;0.4736;138.4992;221.7369;2.0907E-6;-3.7E-7;0;Amateur
14.5139893;0.0015383;98.4119;1.5081;135.4785;224.7649;4.0188E-6;-3.0E-7;0;Amateur
14.51398939;0.0015393;98.4119;1.715;134.8838;225.361;3.8468E-6;-3.0E-7;0;Amateur
14.51398964;0.0015434;98.4119;2.4737;132.6814;227.5684;4.7346E-6;-2.7E-7;0;Amateur
14.51398989;0.0015447;98.4119;2.7495;131.9095;228.342;4.9915E-6;-2.6E-7;0;Amateur
14.51398984;0.0015464;98.4119;3.0254;131.1022;229.1511;5.1673E-6;-2.5E-7;0;Amateur
14.51398994;0.0015476;98.4119;3.3703;130.1169;230.1385;5.5046E-6;-2.4E-7;0;Amateur
14.51399008;0.0015494;98.4119;3.7841;128.9485;231.3094;5.5285E-6;-2.4E-7;0;Amateur
14.51399041;0.0015515;98.4119;4.129;127.928;232.3319;6.4886E-6;-2.0E-7;0;Amateur
14.51399065;0.0015542;98.4119;4.7497;126.1915;234.072;6.4023E-6;-2.0E-7;0;Amateur
14.51399077;0.001556;98.4119;5.3015;124.6051;235.6614;6.3742E-6;-2.0E-7;0;Amateur
14.51399087;0.0015582;98.4119;5.8532;123.0371;237.2323;6.0139E-6;-2.2E-7;0;Amateur
14.51399107;0.0015604;98.4119;6.336;121.6602;238.6117;5.7514E-6;-2.3E-7;0;Amateur
14.51399129;0.0015618;98.4118;6.7498;120.4881;239.7858;5.997E-6;-2.2E-7;0;Amateur
14.51399158;0.0015651;98.4118;7.7844;117.5588;242.7199;4.9887E-6;-2.6E-7;0;Amateur
14.51399175;0.0015667;98.4118;8.1982;116.3836;243.8969;4.6817E-6;-2.7E-7;0;Amateur
14.51399175;0.0015671;98.4118;8.4051;115.7858;244.4956;4.6463E-6;-2.7E-7;0;Amateur
14.51399182;0.0015675;98.4117;8.612;115.2056;245.0765;4.6389E-6;-2.7E-7;0;Amateur
14.5139923;0.0015666;98.4118;8.75;114.7807;245.502;5.3904E-6;-2.4E-7;0;Amateur
14.51399225;0.0015676;98.4118;9.2328;113.4026;246.8819;4.1777E-6;-2.9E-7;0;Amateur
14.51399207;0.0015678;98.4118;9.3708;113.003;247.282;3.6079E-6;-3.1E-7;0;Amateur
14.51399225;0.0015687;98.4118;9.7846;111.8399;248.4466;3.3848E-6;-3.2E-7;0;Amateur
14.51399253;0.0015705;98.4118;10.3364;110.2807;250.0077;3.1359E-6;-3.3E-7;0;Amateur
14.5139925;0.0015711;98.4118;10.7502;109.1111;251.1786;2.5598E-6;-3.5E-7;0;Amateur
14.51399261;0.0015732;98.4118;11.3709;107.3373;252.9544;2.5718E-6;-3.5E-7;0;Amateur
14.51399279;0.0015738;98.4119;11.7848;106.1728;254.12;2.5613E-6;-3.5E-7;0;Amateur
14.51399282;0.0015752;98.4119;12.4055;104.404;255.8904;2.1427E-6;-3.7E-7;0;Amateur
14.51399284;0.0015758;98.4119;12.7504;103.4197;256.8755;1.7823E-6;-3.9E-7;0;Amateur
14.51399259;0.0015761;98.412;13.0262;102.631;257.6648;1.3575E-6;-4.0E-7;0;Amateur
14.51399266;0.0015761;98.412;13.3711;101.6303;258.6662;1.4921E-6;-4.0E-7;0;Amateur
14.51399286;0.0015767;98.412;13.8539;100.3042;259.9931;1.8702E-6;-3.8E-7;0;Amateur
14.51399308;0.0015782;98.4121;14.4056;98.7352;261.5631;2.5992E-6;-3.5E-7;0;Amateur
14.51399322;0.0015786;98.412;14.7504;97.8159;262.4829;2.8349E-6;-3.4E-7;0;Amateur
14.51399351;0.0015796;98.4121;15.3712;96.069;264.2305;4.0671E-6;-2.9E-7;0;Amateur
14.51399347;0.0015807;98.4121;16.4057;93.1702;267.1302;4.1751E-6;-2.9E-7;0;Amateur
14.51399362;0.0015807;98.4121;16.7506;92.1984;268.1021;4.5177E-6;-2.8E-7;0;Amateur
14.5139936;0.0015813;98.4121;17.0265;91.4201;268.8806;4.8697E-6;-2.6E-7;0;Amateur
14.51399385;0.0015816;98.4121;17.3023;90.6414;269.6593;5.4328E-6;-2.4E-7;0;Amateur
14.51399371;0.0015809;98.4121;17.5782;89.8599;270.4407;5.7282E-6;-2.3E-7;0;Amateur
14.51399376;0.0015806;98.412;17.7851;89.3246;270.976;5.29E-6;-2.5E-7;0;Amateur
14.51399399;0.0015796;98.4121;18.4059;87.5383;272.762;6.2557E-6;-2.1E-7;0;Amateur
14.51399426;0.001579;98.412;18.8197;86.3714;273.9286;6.6892E-6;-1.9E-7;0;Amateur
14.51399416;0.0015793;98.412;19.0267;85.7837;274.5162;6.7132E-6;-1.9E-7;0;Amateur
14.51399458;0.001578;98.412;19.8543;83.4749;276.8242;7.2454E-6;-1.7E-7;0;Amateur
14.51399477;0.0015775;98.412;20.4061;81.9226;278.3758;7.4096E-6;-1.6E-7;0;Amateur
14.5139951;0.0015768;98.4119;20.751;80.9422;279.3556;7.8534E-6;-1.4E-7;0;Amateur
14.51399569;0.0015761;98.4119;21.3717;79.1715;281.1252;9.2061E-6;-9.0E-8;0;Amateur
14.51399612;0.0015747;98.4119;21.7856;78.0042;282.2917;9.6193E-6;-7.0E-8;0;Amateur
14.51399653;0.0015742;98.4119;22.1994;76.8377;283.4574;9.956E-6;-6.0E-8;0;Amateur
14.51399659;0.0015737;98.4119;22.3373;76.4386;283.8561;9.8661E-6;-6.0E-8;0;Amateur
14.51399739;0.0015715;98.4119;23.234;73.8795;286.4128;1.0209E-5;-5.0E-8;0;Amateur
14.51399729;0.0015713;98.4119;23.372;73.4737;286.8182;9.7672E-6;-7.0E-8;0;Amateur
14.51399738;0.0015703;98.4119;23.7858;72.3161;287.9747;8.7665E-6;-1.1E-7;0;Amateur
14.51399778;0.0015689;98.4119;24.4066;70.5593;289.7296;8.439E-6;-1.2E-7;0;Amateur
14.51399804;0.001568;98.4119;24.7514;69.5795;290.7082;8.1547E-6;-1.3E-7;0;Amateur
14.51399832;0.0015671;98.4119;25.2342;68.2245;292.0616;7.7461E-6;-1.5E-7;0;Amateur
14.51399812;0.0015664;98.4119;25.4411;67.6159;292.6694;7.0004E-6;-1.8E-7;0;Amateur
14.51399831;0.0015648;98.4119;25.855;66.4469;293.8368;6.1776E-6;-2.1E-7;0;Amateur
14.51399837;0.0015628;98.412;26.4757;64.6989;295.5823;5.2128E-6;-2.5E-7;0;Amateur
14.51399866;0.0015617;98.412;26.7516;63.9057;296.3743;5.2323E-6;-2.5E-7;0;Amateur
14.51399897;0.0015604;98.412;27.2344;62.546;297.7319;5.2263E-6;-2.5E-7;0;Amateur
14.51399886;0.0015598;98.412;27.3723;62.1517;298.1256;4.8752E-6;-2.6E-7;0;Amateur
14.51399907;0.0015584;98.412;27.7861;60.964;299.3114;4.892E-6;-2.6E-7;0;Amateur
14.51399919;0.0015557;98.4121;28.5448;58.7817;301.49;4.6869E-6;-2.7E-7;0;Amateur
14.51399924;0.0015553;98.4121;28.7517;58.2196;302.0511;4.2378E-6;-2.9E-7;0;Amateur
14.51399982;0.0015505;98.4121;29.8552;55.0566;305.2083;5.3199E-6;-2.4E-7;0;Amateur
14.51400041;0.0015466;98.4121;30.7519;52.475;307.7848;6.8967E-6;-1.8E-7;0;Amateur
14.51400054;0.001545;98.4122;31.2347;51.106;309.151;7.0169E-6;-1.8E-7;0;Amateur
14.51400038;0.0015441;98.4122;31.3726;50.6941;309.562;6.7365E-6;-1.9E-7;0;Amateur
14.51400075;0.0015415;98.4122;31.8555;49.2907;310.9624;7.6278E-6;-1.5E-7;0;Amateur
14.51400102;0.0015391;98.4122;32.4072;47.702;312.5477;8.3338E-6;-1.2E-7;0;Amateur
14.51400126;0.0015368;98.4122;32.8211;46.5081;313.7388;8.5426E-6;-1.2E-7;0;Amateur
14.51400157;0.0015351;98.4122;33.235;45.32;314.9242;9.2891E-6;-9.0E-8;0;Amateur
14.51400147;0.0015345;98.4122;33.3729;44.8957;315.3476;8.9454E-6;-1.0E-7;0;Amateur
14.51400172;0.0015321;98.4122;33.7868;43.6909;316.5495;9.2321E-6;-9.0E-8;0;Amateur
14.51400196;0.001529;98.4122;34.4075;41.8978;318.3384;9.1737E-6;-9.0E-8;0;Amateur
14.51400226;0.0015271;98.4122;34.7524;40.8876;319.3461;9.4528E-6;-8.0E-8;0;Amateur
14.51400264;0.0015248;98.4122;35.2352;39.484;320.7463;9.7254E-6;-7.0E-8;0;Amateur
14.51400272;0.0015242;98.4122;35.3731;39.0831;321.1462;9.9015E-6;-6.0E-8;0;Amateur
14.514003;0.0015216;98.4121;35.787;37.8739;322.3523;9.791E-6;-7.0E-8;0;Amateur
14.51400301;0.0015207;98.4121;35.9249;37.4915;322.7337;9.7733E-6;-7.0E-8;0;Amateur
14.51400301;0.0015207;98.4121;35.9249;37.4915;322.7337;9.7733E-6;-7.0E-8;0;Amateur
14.51400338;0.0015184;98.4121;36.4078;36.0847;324.1369;9.7775E-6;-7.0E-8;0;Amateur
14.5140034;0.0015171;98.4121;36.6147;35.4797;324.7403;9.5293E-6;-8.0E-8;0;Amateur
14.5140034;0.0015171;98.4121;36.6147;35.4797;324.7403;9.5293E-6;-8.0E-8;0;Amateur
14.51400399;0.0015135;98.4121;37.2355;33.6805;326.5349;9.2103E-6;-9.0E-8;0;Amateur
14.51400393;0.0015129;98.4121;37.3734;33.2813;326.933;8.8797E-6;-1.0E-7;0;Amateur
14.51400423;0.0015104;98.4121;37.7873;32.0397;328.1713;8.5894E-6;-1.1E-7;0;Amateur
14.51400462;0.0015062;98.4121;38.546;29.8181;330.3869;7.9908E-6;-1.4E-7;0;Amateur
14.514005;0.0015048;98.4121;38.8219;29.0031;331.1997;7.9153E-6;-1.4E-7;0;Amateur
14.51400546;0.0015024;98.4121;39.2357;27.8001;332.3994;8.3027E-6;-1.3E-7;0;Amateur
14.51400542;0.0015018;98.4121;39.3737;27.3839;332.8145;8.0405E-6;-1.4E-7;0;Amateur
14.5140057;0.0014993;98.4121;39.8565;25.9046;334.2896;7.4486E-6;-1.6E-7;0;Amateur
14.5140057;0.0014981;98.4121;40.0635;25.3093;334.8832;7.2933E-6;-1.7E-7;0;Amateur
14.5140059;0.0014964;98.4122;40.4084;24.2754;335.9142;6.8863E-6;-1.8E-7;0;Amateur
14.51400628;0.0014939;98.4122;40.8222;23.0343;337.1519;6.8334E-6;-1.8E-7;0;Amateur
14.51400644;0.0014913;98.4122;41.236;21.833;338.3497;6.4212E-6;-2.0E-7;0;Amateur
14.51400646;0.0014907;98.4122;41.374;21.4223;338.7593;6.3309E-6;-2.1E-7;0;Amateur
14.51400654;0.0014885;98.4122;41.7189;20.3748;339.8038;5.9483E-6;-2.2E-7;0;Amateur
14.51400681;0.0014842;98.4123;42.4087;18.3224;341.8503;5.5347E-6;-2.4E-7;0;Amateur
14.51400701;0.0014819;98.4123;42.7535;17.2847;342.8849;5.4653E-6;-2.4E-7;0;Amateur
14.51400734;0.0014788;98.4124;43.2364;15.8549;344.3106;5.6908E-6;-2.3E-7;0;Amateur
14.51400726;0.0014782;98.4124;43.3743;15.43;344.7343;5.3105E-6;-2.5E-7;0;Amateur
14.51400742;0.0014757;98.4124;43.7882;14.1768;345.9838;5.3026E-6;-2.5E-7;0;Amateur
14.51400763;0.0014719;98.4125;44.409;12.3276;347.8276;5.5429E-6;-2.4E-7;0;Amateur
14.51400758;0.0014704;98.4125;44.6159;11.703;348.4504;5.4557E-6;-2.4E-7;0;Amateur
14.51400801;0.0014693;98.4125;44.8228;11.0569;349.0945;6.1715E-6;-2.1E-7;0;Amateur
14.51400818;0.0014666;98.4125;45.2367;9.8356;350.3122;6.2862E-6;-2.1E-7;0;Amateur
14.5140082;0.0014659;98.4125;45.3746;9.4212;350.7255;6.3686E-6;-2.0E-7;0;Amateur
14.51400821;0.0014643;98.4125;45.5816;8.7966;351.3483;6.7683E-6;-1.9E-7;0;Amateur
